 2016  723 0905 25.3 L  38.082  20.204  0.1  GOR  7 0.8                        1
 GAP=275        1.27       9.9    45.9 66.3  0.2416E+03 -0.2745E+04 -0.2099E+03E
                                                                               6
 STAT SP IPHASW D HRMM SECON CODA AMPLIT PERI AZIMU VELO AIN AR TRES W  DIS CAZ7
 ANZ      P   1    9 5 33.44                              68   -0.58 7 46.1 120 
 ANY      P   1    9 5 33.44                              68   -0.82 7 47.6  82 
 AP2      P   1    9 5 35.15                              68    0.34 7 50.7  36 
 ANH      P   1    9 5 39.86                              68    0.04 7 78.8 121 
 ANJ      P   1    9 5 41.57                              65   -0.60 6 92.0 103 
 ANJ      S   2    9 5 57.01                              65    1.32 4 92.0 103 
 ANJ      S   2    9 5 57.37                                           92.0 103 
 ANF      P   4    9 5 44.14                              65   -0.98 0  109  97 
 ANX      S   2    9 5 59.94                              65   -1.09 4  109 117 
 ANF      S   4    9 6  2.14                              65    1.14 0  109  97 
 ANX      P   1    9 5 46.71                              65    1.57 6  109 117 
 ANX      S   2    9 6  1.40                              65    0.37 4  109 117 
 ANW      P   1    9 5 50.14                              65    0.45 5  135 111 
                                                                                
