 2016  715 1805  3.0 L  38.086  21.651 20.0  GOR  7 1.0                        1
 GAP=248        1.73      11.7    19.7 40.0  0.1665E+03  0.5279E+03  0.2079E+03E
                                                                               6
 STAT SP IPHASW D HRMM SECON CODA AMPLIT PERI AZIMU VELO AIN AR TRES W  DIS CAZ7
 ANF      P   4   18 5  9.53                             126    1.08 0 23.8 233 
 ANF      S   4   18 5 13.50                             126    0.65 0 23.8 233 
 ANF      S   4   18 5 14.42                             126    1.57 0 23.8 233 
 INO      P   1   18 5  7.07                             119   -2.26 7 29.9 203 
 ANJ      P   1   18 5 12.20                             107    0.77 7 43.8 240 
 ANJ      S   2   18 5 18.82                             107    0.61 5 43.8 240 
 ANJ      S   2   18 5 19.06                                           43.8 240 
 ANW      P   1   18 5 13.38                             104    1.04 7 49.4 182 
 ANW      S   2   18 5 20.61                             104    0.76 5 49.4 182 
 ANW      S   2   18 5 20.65                                           49.4 182 
 ANH      P   1   18 5 16.37                              95    0.24 7 72.4 236 
 ANY      P   1   18 5 17.87                              94    0.47 7 80.0 275 
 ANY      S   2   18 5 29.79                              94    0.84 4 80.0 275 
 ANY      S   2   18 5 29.92                                           80.0 275 
 ANZ      P   1   18 5 18.30                              93   -0.84 6 90.4 255 
 ANZ      S   2   18 5 30.59                              93   -1.50 4 90.4 255 
 ANZ      S   2   18 5 31.03                                           90.4 255 
 AP2      P   1   18 5 21.72                              92    0.13 6  105 293 
 AP2      S   2   18 5 36.49                              92   -0.02 4  105 293 
 AP2      S   2   18 5 36.49                                            105 293 
                                                                                
