 2016  7 8 0841 15.4 L  38.707  20.292 11.9       8 1.4                        1
 STAT SP IPHASW D HRMM SECON CODA AMPLIT PERI AZIMU VELO AIN AR TRES W  DIS CAZ7
 AP2      P   1    841 22.66                                                    
 AP2      S   1    841 25.49                                                    
 AP2      S   1    841 25.84                                                    
 AP2      S   1    841 25.84                                                    
 ANY      P   1    841 28.01                                                    
 ANY      S   1    841 37.56                                                    
 ANZ      P   1    841 32.40                                                    
 ANZ      S   1    841 46.34                                                    
 ANZ      S   1    841 46.92                                                    
 AP0      P   1    841 39.28                                                    
 AP0      P   1    841 39.47                                                    
 AP0      S   1    841 54.55                                                    
 AP0      S   1    841 54.74                                                    
 ANH      P   1    841 36.99                                                    
 ANF      P   1    841 36.41                                                    
 ANX      P   1    841 40.61                                                    
 ANX      S   1    842  3.53                                                    
 ANX      S   1    842  3.72                                                    
 ANW      P   1    841 42.71                                                    
                                                                                
 2016  715 1805  3.9 L  38.052  21.592 27.7       8 0.5                        1
 STAT SP IPHASW D HRMM SECON CODA AMPLIT PERI AZIMU VELO AIN AR TRES W  DIS CAZ7
 INO      P   1   18 5  7.07                                                    
 ANF      P   1   18 5  9.53                                                    
 ANF      S   1   18 5 13.50                                                    
 ANF      S   1   18 5 14.42                                                    
 ANJ      P   1   18 5 12.20                                                    
 ANJ      S   1   18 5 18.82                                                    
 ANJ      S   1   18 5 19.06                                                    
 ANW      P   1   18 5 13.38                                                    
 ANW      S   1   18 5 20.61                                                    
 ANW      S   1   18 5 20.65                                                    
 ANH      P   1   18 5 16.37                                                    
 ANY      P   1   18 5 17.87                                                    
 ANY      S   1   18 5 29.79                                                    
 ANY      S   1   18 5 29.92                                                    
 ANZ      P   1   18 5 18.30                                                    
 ANZ      S   1   18 5 30.59                                                    
 ANZ      S   1   18 5 31.03                                                    
 AP2      P   1   18 5 21.72                                                    
 AP2      S   1   18 5 36.49                                                    
 AP2      S   1   18 5 36.49                                                    
                                                                                
 2016  715 1809 18.5 L  38.230  20.703  8.4       999.9                        1
 STAT SP IPHASW D HRMM SECON CODA AMPLIT PERI AZIMU VELO AIN AR TRES W  DIS CAZ7
 INO      P   1   1811 12.59                                                    
 ANY      S   1   18 5 29.79                                                    
 ANY      S   1   18 5 29.92                                                    
 ANY      P   1   1811 23.28                                                    
 AP2      S   1   18 5 36.49                                                    
 AP2      S   1   18 5 36.49                                                    
 AP2      P   1   1811 27.41                                                    
 AP2      S   1   1811 42.53                                                    
 AP2      S   1   1811 42.65                                                    
 ANZ      S   1   18 5 30.59                                                    
 ANZ      S   1   18 5 31.03                                                    
 ANZ      P   1   1811 24.05                                                    
 ANZ      S   1   1811 36.10                                                    
 ANZ      S   1   1811 36.34                                                    
 ANJ      P   1   1811 17.94                                                    
 ANJ      S   1   1811 24.81                                                    
 ANJ      S   1   1811 24.87                                                    
 ANH      P   1   1811 22.06                                                    
 ANF      S   1   18 5 13.50                                                    
 ANF      S   1   18 5 14.42                                                    
 ANF      P   1   1811 15.04                                                    
 ANF      S   1   1811 19.01                                                    
 ANX      P   1   1811 19.92                                                    
 ANW      P   1   1811 19.01                                                    
 ANW      S   1   1811 26.23                                                    
 ANW      S   1   1811 26.23                                                    
                                                                                
 2016  722 0335 24.8 L  38.074  20.152  7.2       8 0.9                        1
 STAT SP IPHASW D HRMM SECON CODA AMPLIT PERI AZIMU VELO AIN AR TRES W  DIS CAZ7
 ANZ      P   1   335 33.44                                                     
 ANY      P   1   335 33.44                                                     
 AP2      P   1   335 35.15                                                     
 ANH      P   1   335 39.86                                                     
 ANJ      P   1   335 41.57                                                     
 ANJ      S   1   335 57.01                                                     
 ANJ      S   1   335 57.37                                                     
 ANF      P   1   335 44.14                                                     
 ANX      S   1   335 59.94                                                     
 ANF      S   1   336  2.14                                                     
 ANX      P   1   335 46.71                                                     
 ANX      S   1   336  1.40                                                     
 ANW      P   1   335 50.14                                                     
                                                                                
 2016  723 1831 43.9 L  38.324  20.270  0.0       8 0.9                        1
 STAT SP IPHASW D HRMM SECON CODA AMPLIT PERI AZIMU VELO AIN AR TRES W  DIS CAZ7
 AP2      P   1   1831 49.27                                                    
 ANY      P   1   1831 50.96                                                    
 ANZ      P   1   1831 54.35                                                    
 ANH      P   1   1832  1.14                                                    
 ANJ      P   1   1832  1.14                                                    
 ANF      P   1   1832  5.09                                                    
 ANX      P   1   1832  6.79                                                    
 ANW      P   1   1832  9.61                                                    
                                                                                
 2016  725 0942 19.7QLQ 38.975  20.855  0.0       9 1.5                        1
 STAT SP IPHASW D HRMM SECON CODA AMPLIT PERI AZIMU VELO AIN AR TRES W  DIS CAZ7
 AP2      P   1   942 31.65                                                     
 ANY      P   1   942 35.67                                                     
 ANZ      P   1   942 42.36                                                     
 ANF      P   1   942 41.91                                                     
 ANJ      P   1   942 43.25                                                     
 INO      P   1   942 41.46                                                     
 ANH      P   1   942 45.03                                                     
 ANX      P   1   942 48.15                                                     
 ANW      P   1   942 51.27                                                     
                                                                                
 2016  725 1544  3.3 L  38.773  20.808 17.6       8 1.2                        1
 STAT SP IPHASW D HRMM SECON CODA AMPLIT PERI AZIMU VELO AIN AR TRES W  DIS CAZ7
 AP2      P   1   1544 11.34                                                    
 ANY      P   1   1544 17.27                                                    
 ANZ      P   1   1544 19.82                                                    
 ANF      P   1   1544 20.66                                                    
 ANJ      P   1   1544 23.21                                                    
 ANH      P   1   1544 23.21                                                    
 ANX      P   1   1544 28.29                                                    
 ANW      P   1   1544 27.45                                                    
                                                                                
 2016  725 2002  7.5 L  38.920  20.704 12.2       8 0.8                        1
 STAT SP IPHASW D HRMM SECON CODA AMPLIT PERI AZIMU VELO AIN AR TRES W  DIS CAZ7
 INO      P   1   20 2 25.92                                                    
 AP2      P   1   20 2 17.36                                                    
 ANY      P   1   20 2 21.86                                                    
 ANZ      P   1   20 2 28.62                                                    
 ANJ      P   1   20 2 30.42                                                    
 ANF      P   1   20 2 28.62                                                    
 ANX      P   1   20 2 33.12                                                    
 ANW      P   1   20 2 35.82                                                    
                                                                                
 2016  725 2008  6.1 L  37.646  21.639  0.0       999.9                        1
 STAT SP IPHASW D HRMM SECON CODA AMPLIT PERI AZIMU VELO AIN AR TRES W  DIS CAZ7
 INO      P   1   20 2 25.92                                                    
 ANW      P   1   20 2 35.82                                                    
 ANW      P   1   2010 19.73                                                    
 ANX      P   1   2010 19.52                                                    
 ANF      P   1   2010 13.14                                                    
 ANJ      P   1   20 2 30.42                                                    
 ANJ      P   1   2010 14.37                                                    
 ANH      P   1   2010 17.46                                                    
 ANZ      P   1   2010 13.14                                                    
 ANY      P   1   2010  7.36                                                    
 AP2      P   1   2010  2.62                                                    
                                                                                
 2016  726 0552 48.1 L  38.984  20.870  0.0       5 0.8                        1
 STAT SP IPHASW D HRMM SECON CODA AMPLIT PERI AZIMU VELO AIN AR TRES W  DIS CAZ7
 AP2      P   1   552 59.53                                                     
 ANY      P   1   553  5.69                                                     
 ANZ      P   1   553 11.02                                                     
 ANF      P   1   553  9.38                                                     
 ANW      P   1   553 18.41                                                     
                                                                                
 2016  727 0806 49.3 L  38.976  20.463 15.0       7 2.2                        1
 STAT SP IPHASW D HRMM SECON CODA AMPLIT PERI AZIMU VELO AIN AR TRES W  DIS CAZ7
 AP2      P   1   8 7  0.11                                                     
 ANY      P   1   8 7  4.93                                                     
 ANZ      P   1   8 7 10.56                                                     
 ANJ      P   1   8 7 18.19                                                     
 ANF      P   1   8 7 10.96                                                     
 ANH      P   1   8 7 14.57                                                     
 ANW      P   1   8 7 18.59                                                     
                                                                                
 2016  727 0829 33.9 L  38.946  20.518 33.0       8 0.7                        1
 STAT SP IPHASW D HRMM SECON CODA AMPLIT PERI AZIMU VELO AIN AR TRES W  DIS CAZ7
 AP2      P   1   829 44.59                                                     
 ANY      P   1   829 50.61                                                     
 ANZ      P   1   829 53.34                                                     
 ANJ      P   1   829 54.44                                                     
 ANF      P   1   829 55.53                                                     
 ANH      P   1   829 57.72                                                     
 ANX      P   1   829 59.91                                                     
 ANW      P   1   830  1.01                                                     
                                                                                
 2016  727 1327  5.2 L  37.888  21.373 26.2       9 0.4                        1
 STAT SP IPHASW D HRMM SECON CODA AMPLIT PERI AZIMU VELO AIN AR TRES W  DIS CAZ7
 INO      P   1   1327  3.98                                                    
 ANF      P   1   1327  9.82                                                    
 ANJ      P   1   1327 10.47                                                    
 ANX      P   1   1327 11.77                                                    
 ANW      P   1   1327 13.06                                                    
 ANH      P   1   1327 13.71                                                    
 ANY      P   1   1327 17.61                                                    
 ANZ      P   1   1327 16.31                                                    
 AP2      P   1   1327 22.15                                                    
                                                                                
 2016  730 1613 36.3 L  37.833  21.371 14.2      10 1.1                        1
 STAT SP IPHASW D HRMM SECON CODA AMPLIT PERI AZIMU VELO AIN AR TRES W  DIS CAZ7
 INO      P   1   1613 31.89                                                    
 ANJ      P   1   1613 40.47                                                    
 ANF      P   1   1613 39.20                                                    
 ANX      P   1   1613 41.43                                                    
 ANW      P   1   1613 42.38                                                    
 ANH      P   1   1613 43.97                                                    
 ANG      P   1   1613 45.88                                                    
 ANZ      P   1   1613 46.19                                                    
 ANY      P   1   1613 47.15                                                    
 AP2      P   1   1613 56.37                                                    
                                                                                
 2016  8 6 1632 44.6 L  37.921  20.958  0.0       9 1.1                        1
 STAT SP IPHASW D HRMM SECON CODA AMPLIT PERI AZIMU VELO AIN AR TRES W  DIS CAZ7
 INO      P   1   1632 45.00                                                    
 ANH      P   1   1632 48.73                                                    
 ANJ      P   1   1632 48.73                                                    
 ANG      P   1   1632 49.15                                                    
 ANZ      P   1   1632 49.15                                                    
 ANF      P   1   1632 51.64                                                    
 ANX      P   1   1632 55.37                                                    
 ANW      P   1   1632 56.20                                                    
 AP2      P   1   1632 58.28                                                    
                                                                                 
