 2016  715 18 5  7.1 L                            8                            1
                                                                               E
                                                                               6
 STAT SP IPHASW D HRMM SECON CODA AMPLIT PERI AZIMU VELO AIN AR TRES W  DIS CAZ7
 INO      P   1   18 5  7.07                                                    
 ANF      P   4   18 5  9.53                                                    
 ANF      S   4   18 5 13.50                                                    
 ANF      S   4   18 5 14.42                                                    
 ANJ      P   1   18 5 12.20                                                    
 ANJ      S   2   18 5 18.82                                                    
 ANJ      S   2   18 5 19.06                                                    
 ANW      P   1   18 5 13.38                                                    
 ANW      S   2   18 5 20.61                                                    
 ANW      S   2   18 5 20.65                                                    
 ANH      P   1   18 5 16.37                                                    
 ANY      P   1   18 5 17.87                                                    
 ANY      S   2   18 5 29.79                                                    
 ANY      S   2   18 5 29.92                                                    
 ANZ      P   1   18 5 18.30                                                    
 ANZ      S   2   18 5 30.59                                                    
 ANZ      S   2   18 5 31.03                                                    
 AP2      P   1   18 5 21.72                                                    
 AP2      S   2   18 5 36.49                                                    
 AP2      S   2   18 5 36.49                                                    
                                                                                
 2016  715 18 5  7.1 L                            8                            1
                                                                               E
                                                                               6
 STAT SP IPHASW D HRMM SECON CODA AMPLIT PERI AZIMU VELO AIN AR TRES W  DIS CAZ7
 INO      P   1   18 5  7.07                                                    
 ANF      P   1   18 5  9.53                                                    
 ANF      S   2   18 5 13.50                                                    
 ANF      S   2   18 5 14.42                                                    
 ANJ      P   1   18 5 12.20                                                    
 ANJ      S   2   18 5 18.82                                                    
 ANJ      S   2   18 5 19.06                                                    
 ANW      P   1   18 5 13.38                                                    
 ANW      S   2   18 5 20.61                                                    
 ANW      S   2   18 5 20.65                                                    
 ANH      P   4   18 5 16.37                                                    
 ANY      P   1   18 5 17.87                                                    
 ANY      S   2   18 5 29.79                                                    
 ANY      S   2   18 5 29.92                                                    
 ANZ      P   1   18 5 18.30                                                    
 ANZ      S   2   18 5 30.59                                                    
 ANZ      S   2   18 5 31.03                                                    
 AP2      P   1   18 5 21.72                                                    
 AP2      S   2   18 5 36.49                                                    
 AP2      S   2   18 5 36.49                                                    
                                                                                
 2016  715 18 5  7.1 L                            8                            1
                                                                               E
                                                                               6
 STAT SP IPHASW D HRMM SECON CODA AMPLIT PERI AZIMU VELO AIN AR TRES W  DIS CAZ7
 INO      P   1   18 5  7.07                                                    
 ANF      P   1   18 5  9.53                                                    
 ANF      S   2   18 5 13.50                                                    
 ANF      S   2   18 5 14.42                                                    
 ANJ      P   4   18 5 12.20                                                    
 ANJ      S   4   18 5 18.82                                                    
 ANJ      S   4   18 5 19.06                                                    
 ANW      P   1   18 5 13.38                                                    
 ANW      S   2   18 5 20.61                                                    
 ANW      S   2   18 5 20.65                                                    
 ANH      P   1   18 5 16.37                                                    
 ANY      P   1   18 5 17.87                                                    
 ANY      S   2   18 5 29.79                                                    
 ANY      S   2   18 5 29.92                                                    
 ANZ      P   1   18 5 18.30                                                    
 ANZ      S   2   18 5 30.59                                                    
 ANZ      S   2   18 5 31.03                                                    
 AP2      P   1   18 5 21.72                                                    
 AP2      S   2   18 5 36.49                                                    
 AP2      S   2   18 5 36.49                                                    
                                                                                
 2016  715 18 5  7.1 L                            8                            1
                                                                               E
                                                                               6
 STAT SP IPHASW D HRMM SECON CODA AMPLIT PERI AZIMU VELO AIN AR TRES W  DIS CAZ7
 INO      P   1   18 5  7.07                                                    
 ANF      P   1   18 5  9.53                                                    
 ANF      S   2   18 5 13.50                                                    
 ANF      S   2   18 5 14.42                                                    
 ANJ      P   1   18 5 12.20                                                    
 ANJ      S   2   18 5 18.82                                                    
 ANJ      S   2   18 5 19.06                                                    
 ANW      P   4   18 5 13.38                                                    
 ANW      S   4   18 5 20.61                                                    
 ANW      S   4   18 5 20.65                                                    
 ANH      P   1   18 5 16.37                                                    
 ANY      P   1   18 5 17.87                                                    
 ANY      S   2   18 5 29.79                                                    
 ANY      S   2   18 5 29.92                                                    
 ANZ      P   1   18 5 18.30                                                    
 ANZ      S   2   18 5 30.59                                                    
 ANZ      S   2   18 5 31.03                                                    
 AP2      P   1   18 5 21.72                                                    
 AP2      S   2   18 5 36.49                                                    
 AP2      S   2   18 5 36.49                                                    
                                                                                
 2016  715 18 5  7.1 L                            8                            1
                                                                               E
                                                                               6
 STAT SP IPHASW D HRMM SECON CODA AMPLIT PERI AZIMU VELO AIN AR TRES W  DIS CAZ7
 INO      P   1   18 5  7.07                                                    
 ANF      P   1   18 5  9.53                                                    
 ANF      S   2   18 5 13.50                                                    
 ANF      S   2   18 5 14.42                                                    
 ANJ      P   1   18 5 12.20                                                    
 ANJ      S   2   18 5 18.82                                                    
 ANJ      S   2   18 5 19.06                                                    
 ANW      P   1   18 5 13.38                                                    
 ANW      S   2   18 5 20.61                                                    
 ANW      S   2   18 5 20.65                                                    
 ANH      P   1   18 5 16.37                                                    
 ANY      P   4   18 5 17.87                                                    
 ANY      S   4   18 5 29.79                                                    
 ANY      S   4   18 5 29.92                                                    
 ANZ      P   1   18 5 18.30                                                    
 ANZ      S   2   18 5 30.59                                                    
 ANZ      S   2   18 5 31.03                                                    
 AP2      P   1   18 5 21.72                                                    
 AP2      S   2   18 5 36.49                                                    
 AP2      S   2   18 5 36.49                                                    
                                                                                
 2016  715 18 5  7.1 L                            8                            1
                                                                               E
                                                                               6
 STAT SP IPHASW D HRMM SECON CODA AMPLIT PERI AZIMU VELO AIN AR TRES W  DIS CAZ7
 INO      P   1   18 5  7.07                                                    
 ANF      P   1   18 5  9.53                                                    
 ANF      S   2   18 5 13.50                                                    
 ANF      S   2   18 5 14.42                                                    
 ANJ      P   1   18 5 12.20                                                    
 ANJ      S   2   18 5 18.82                                                    
 ANJ      S   2   18 5 19.06                                                    
 ANW      P   1   18 5 13.38                                                    
 ANW      S   2   18 5 20.61                                                    
 ANW      S   2   18 5 20.65                                                    
 ANH      P   1   18 5 16.37                                                    
 ANY      P   1   18 5 17.87                                                    
 ANY      S   2   18 5 29.79                                                    
 ANY      S   2   18 5 29.92                                                    
 ANZ      P   4   18 5 18.30                                                    
 ANZ      S   4   18 5 30.59                                                    
 ANZ      S   4   18 5 31.03                                                    
 AP2      P   1   18 5 21.72                                                    
 AP2      S   2   18 5 36.49                                                    
 AP2      S   2   18 5 36.49                                                    
                                                                                
 2016  715 18 5  7.1 L                            8                            1
                                                                               E
                                                                               6
 STAT SP IPHASW D HRMM SECON CODA AMPLIT PERI AZIMU VELO AIN AR TRES W  DIS CAZ7
 INO      P   1   18 5  7.07                                                    
 ANF      P   1   18 5  9.53                                                    
 ANF      S   2   18 5 13.50                                                    
 ANF      S   2   18 5 14.42                                                    
 ANJ      P   1   18 5 12.20                                                    
 ANJ      S   2   18 5 18.82                                                    
 ANJ      S   2   18 5 19.06                                                    
 ANW      P   1   18 5 13.38                                                    
 ANW      S   2   18 5 20.61                                                    
 ANW      S   2   18 5 20.65                                                    
 ANH      P   1   18 5 16.37                                                    
 ANY      P   1   18 5 17.87                                                    
 ANY      S   2   18 5 29.79                                                    
 ANY      S   2   18 5 29.92                                                    
 ANZ      P   1   18 5 18.30                                                    
 ANZ      S   2   18 5 30.59                                                    
 ANZ      S   2   18 5 31.03                                                    
 AP2      P   4   18 5 21.72                                                    
 AP2      S   4   18 5 36.49                                                    
 AP2      S   4   18 5 36.49                                                    
                                                                                
 2016  715 18 5  7.1 L                            8                            1
                                                                               E
                                                                               6
 STAT SP IPHASW D HRMM SECON CODA AMPLIT PERI AZIMU VELO AIN AR TRES W  DIS CAZ7
 INO      P   4   18 5  7.07                                                    
 ANF      P   1   18 5  9.53                                                    
 ANF      S   2   18 5 13.50                                                    
 ANF      S   2   18 5 14.42                                                    
 ANJ      P   1   18 5 12.20                                                    
 ANJ      S   2   18 5 18.82                                                    
 ANJ      S   2   18 5 19.06                                                    
 ANW      P   1   18 5 13.38                                                    
 ANW      S   2   18 5 20.61                                                    
 ANW      S   2   18 5 20.65                                                    
 ANH      P   1   18 5 16.37                                                    
 ANY      P   1   18 5 17.87                                                    
 ANY      S   2   18 5 29.79                                                    
 ANY      S   2   18 5 29.92                                                    
 ANZ      P   1   18 5 18.30                                                    
 ANZ      S   2   18 5 30.59                                                    
 ANZ      S   2   18 5 31.03                                                    
 AP2      P   1   18 5 21.72                                                    
 AP2      S   2   18 5 36.49                                                    
 AP2      S   2   18 5 36.49                                                    
                                                                                
